YUBILEINY (RS30)        
1 32953U 08025A   26109.51040137  .00000007  00000+0 -19971-4 0  9994
2 32953  82.5080  31.9327 0020636  79.0044 281.3356 12.43177420812407
KKS-1 (KISEKI)          
1 33499U 09002H   26109.49040432  .00000973  00000+0  12660-3 0  9999
2 33499  98.1190  31.0111 0009139 115.7579 244.4578 14.82967907927490
SWISSCUBE               
1 35932U 09051B   26109.46417081  .00000739  00000+0  15590-3 0  9997
2 35932  98.4069  16.3257 0007762  43.3026 316.8783 14.62363579880574
BEESAT-1                
1 35933U 09051C   26109.16958309  .00000608  00000+0  13207-3 0  9996
2 35933  98.3998  15.7836 0006413  57.6454 302.5366 14.61620321880564
ITUPSAT1                
1 35935U 09051E   26109.17748798  .00000565  00000+0  12689-3 0  9993
2 35935  98.4085  15.0454 0008707  65.3905 294.8201 14.60348211880125
XIWANG-1 (HOPE-1)       
1 36122U 09072B   26109.49656473 -.00000376  00000+0 -86938-3 0  9998
2 36122 100.3983  64.2796 0007726  12.5817 347.5488 13.16436139785286
O/OREOS (USA 219)       
1 37224U 10062C   26109.52572841  .00001599  00000+0  15754-3 0  9997
2 37224  71.9704 213.1878 0014744 186.0683 174.0311 14.93503683107883
JUGNU                   
1 37839U 11058B   26109.24015147  .00000399  00000+0  68860-4 0  9999
2 37839  19.9618 306.5491 0018579 145.4325  13.3691 14.13758036750674
SRMSAT                  
1 37841U 11058D   26109.19060689  .00000364  00000+0  53735-4 0  9994
2 37841  19.9726  56.5591 0011584 274.5686 127.7309 14.11561180749475
STRAND-1                
1 39090U 13009E   26109.22491536  .00000192  00000+0  78882-4 0  9992
2 39090  98.3911 290.9136 0009558  52.7620 307.4438 14.37127377688590
ZACUBE-1 (TSHEPISOSAT)  
1 39417U 13066B   26109.34146008  .00003541  00000+0  27874-3 0  9997
2 39417  97.8134  71.3651 0044756  88.9136 271.7214 15.00690439671906
GOMX-1                  
1 39430U 13066Q   26109.55219135  .00000906  00000+0  14386-3 0  9993
2 39430  97.6525 313.7058 0127516 265.8888  92.7736 14.69240463661308
CUBEBUG-2 (LO-74)       
1 39440U 13066AA  26109.44107457  .00001878  00000+0  17937-3 0  9999
2 39440  97.8869  58.2078 0056855 221.0611 138.6323 14.93351723668229
FUNCUBE-1 (AO-73)       
1 39444U 13066AE  26109.50764194  .00007802  00000+0  49405-3 0  9995
2 39444  97.8251  79.7800 0038451  45.8501 314.5877 15.08639648670810
UWE-3                   
1 39446U 13066AG  26108.85127889  .00002110  00000+0  18630-3 0  9991
2 39446  97.8662  64.5682 0049810 155.7852 204.5726 14.96546364668703
UNISAT-6                
1 40012U 14033C   26109.22852683  .00002033  00000+0  22433-3 0  9996
2 40012  97.7804 263.0170 0043978 262.4578  97.1641 14.87894271637395
DUCHIFAT-1              
1 40021U 14033M   26109.36961316  .00064121  00000+0  94835-3 0  9996
2 40021  98.0541 160.7548 0003318 261.5219  98.5657 15.55093758646585
QB50P1                  
1 40025U 14033R   26109.47524770  .00007800  00000+0  39435-3 0  9997
2 40025  98.0993 116.5434 0010608  71.8283 288.4103 15.17317825644122
LILACSAT-2              
1 40908U 15049K   26109.54119444  .00015636  00000+0  28511-3 0  9990
2 40908  97.4732 144.2140 0008905 104.6967 255.5272 15.49499403586663
FOX-1A (AO-85)          
1 40967U 15058D   26109.38681558  .00002004  00000+0  19007-3 0  9992
2 40967  64.7728 101.6640 0128458  79.6602 281.8961 14.90601898104802
CAS-2T & KS-1Q          
1 41847U 16066G   26109.15794587  .00000428  00000+0  70346-4 0  9994
2 41847  98.3837 185.5587 0341235 308.8026  48.3143 14.44558371496271
RADFXSAT (FOX-1B)       
1 43017U 17073E   26109.11635494  .00008637  00000+0  38432-3 0  9990
2 43017  97.4779 337.5657 0153724 171.9003 188.4765 15.11641547456468
DIWATA-2B               
1 43678U 18084H   26109.47887359  .00001378  00000+0  11544-3 0  9994
2 43678  98.1044 303.1961 0013718   8.1436 352.0006 15.00159509407418
ES'HAIL 2               
1 43700U 18090A   26109.51153561  .00000146  00000+0  00000+0 0  9996
2 43700   0.0075 230.2033 0001017 169.6167  17.7150  1.00270738 27082
FOX-1CLIFF (AO-95)      
1 43770U 18099N   26109.12947020  .00009272  00000+0  36931-3 0  9995
2 43770  97.4429 169.6382 0009009 185.6183 174.4955 15.25416443404214
ITASAT                  
1 43786U 18099AE  26109.37997949  .00005598  00000+0  27579-3 0  9999
2 43786  97.4084 162.0823 0012619 190.2707 169.8271 15.18286745403984
JY1SAT (JO-97)          
1 43803U 18099AX  26109.14142808  .00014114  00000+0  46205-3 0  9991
2 43803  97.4174 171.8433 0007448 118.7802 241.4188 15.31761930404584
UWE-4                   
1 43880U 18111E   26109.50918376  .00029947  00000+0  68796-3 0  9991
2 43880  97.5862  35.3668 0009011 158.1361 202.0272 15.42602494401725
TIANYAN 01              
1 44881U 19093C   26109.54805564  .00000734  00000+0  89164-4 0  9997
2 44881  97.7555 183.2065 0012123 281.6443  78.3412 14.86421757342703
RS-44 & BREEZE-KM R/B   
1 44909U 19096E   26109.44749394  .00000022  00000+0  50559-4 0  9994
2 44909  82.5263  18.7367 0216403 281.8279  75.8626 12.79747884294836
SALSAT                  
1 46495U 20068K   26109.25945617  .00006769  00000+0  24357-3 0  9992
2 46495  97.8866 108.7787 0011061 141.3144 218.8888 15.28912410306352
XW-3 (CAS-9)            
1 50466U 21131B   26109.53302931  .00000337  00000+0  11783-3 0  9998
2 50466  98.4955 202.2508 0002845 275.1392  84.9472 14.41298857226665
GREENCUBE (IO-117)      
1 53109U 22080E   26106.55228240 -.00000003  00000+0  00000+0 0  9995
2 53109  70.1493 319.6911 0008887 303.6327  56.3485  6.42583340 88102
UMKA 1 (RS40S)          
1 57172U 23091G   26109.52201649  .00005286  00000+0  24717-3 0  9998
2 57172  97.5097 168.4596 0011821 330.5221  29.5346 15.20151784155092
CUBESX-HSE 3 (RS42S)    
1 57178U 23091N   26109.46053215  .00012084  00000+0  42130-3 0  9994
2 57178  97.5130 174.3614 0009431 302.9913  57.0420 15.29748425155449
MONITOR-3 (RS58S)       
1 57180U 23091Q   26109.49241730  .00009473  00000+0  36323-3 0  9996
2 57180  97.5124 172.5482 0010387 310.4570  49.5762 15.26673680155333
MONITOR-4 (RS57S)       
1 57182U 23091S   26109.47513545  .00009349  00000+0  35751-3 0  9998
2 57182  97.5119 172.4981 0010360 311.0448  48.9894 15.26766753155337
MONITOR-2 (RS39S)       
1 57184U 23091U   26109.47213248  .00003909  00000+0  19341-3 0  9990
2 57184  97.5120 168.1432 0010093 323.4491  36.6054 15.18365969155047
SVYATOBOR 1 (RS60S)     
1 57187U 23091X   26109.50648674  .00008339  00000+0  33062-3 0  9990
2 57187  97.5131 173.0313 0007993 302.6301  57.4165 15.25617820155362
VIZARD-METEO (RS38S)    
1 57189U 23091Z   26109.48029117  .00015515  00000+0  47084-3 0  9997
2 57189  97.5125 177.8646 0005909 277.2734  82.7836 15.34176469155680
NANOZOND 1 (RS49S)      
1 57190U 23091AA  26109.15904359  .04658244  25156-5  16100-2 0  9998
2 57190  97.4829 193.5863 0014040 265.1798  94.7890 16.25119868156708
POLYTECH-UNIVERSE 3 (R*)
1 57191U 23091AB  26109.50699990  .00004617  00000+0  22619-3 0  9993
2 57191  97.5096 167.6833 0014790 339.3208  20.7425 15.18562751155040
UTMN 2 (RS27S)          
1 57203U 23091AP  26109.51098642  .00011849  00000+0  40254-3 0  9995
2 57203  97.5123 175.9735 0006608 287.6061  72.4458 15.30616828155565
KUZGTU 1 (RS47S)        
1 57217U 23091AV  26109.46778387  .00010969  00000+0  39723-3 0  9996
2 57217  97.5105 173.3986 0009636 307.3012  52.7349 15.28527075155405
SONATE-2                
1 59112U 24043Q   26109.12331575  .00034379  00000+0  52127-3 0  9991
2 59112  97.5472 256.1189 0007150  65.0290 295.1706 15.54527845118704
MESAT1                  
1 60209U 24125G   26109.54782624  .00045302  00000+0  61451-3 0  9990
2 60209  97.2377 325.9294 0012348  79.0378 281.2266 15.57437510100422
OOV-CUBE (TUBSAT-30)    
1 60240U 24128F   26109.42865998  .00001597  00000+0  13240-3 0  9992
2 60240  61.9939  70.4137 0051132 120.9127 239.7005 15.02477601 97282
COLIBRI-S (RS67S)       
1 61746U 24199M   26109.24408668  .00019795  00000+0  41644-3 0  9997
2 61746  97.3077 342.6436 0010550 128.1228 232.0974 15.45277993128305
HORS 3 (RS81S)          
1 61753U 24199U   26109.51711891  .00031820  00000+0  54555-3 0  9998
2 61753  97.3054 344.3409 0008941 128.8322 231.3730 15.51100523128459
HORS 4 (RS82S)          
1 61754U 24199V   26109.50186150  .00041106  00000+0  62040-3 0  9998
2 61754  97.3017 345.2021 0008260 124.6620 235.5413 15.54607040128518
HORIZON (RS59S)         
1 61757U 24199Y   26109.53261125  .00330898  00000+0  12796-2 0  9991
2 61757  97.2942 350.5887 0006445 122.7942 237.3951 15.86397381128869
ARCTICSAT 1 (RS74S)     
1 61762U 24199AD  26109.34221889  .00154712  00000+0  98663-3 0  9996
2 61762  97.2978 349.4913 0006977 111.9350 248.2658 15.75916621128771
SIT-2086                
1 61764U 24199AF  26109.49213410  .00023996  00000+0  43358-3 0  9995
2 61764  97.3043 344.9753 0008227 117.8375 242.3711 15.49672628125332
HYPERVIEW 1G (RS66S)    
1 61772U 24199AP  26109.52512529  .00079987  00000+0  83937-3 0  9999
2 61772  97.2989 346.8265 0009477 125.1410 235.0739 15.64059345125474
ALTAIR (RS65S)          
1 61779U 24199AW  26109.49732189  .00007454  00000+0  21495-3 0  9999
2 61779  97.3105 339.2585 0014030 150.3669 209.8373 15.35903283128103
ASRTU-1 (AO-123)        
1 61781U 24199AY  26109.50379633  .00007852  00000+0  23430-3 0  9998
2 61781  97.3078 338.7148 0014883 153.1952 207.0064 15.34799017124926
TUSUR GO (RS78S)        
1 61782U 24199AZ  26109.43558618  .00396519  60808-4  13095-2 0  9996
2 61782  97.2863 349.5817 0007093 134.3587 225.8268 15.90361803125656
SAMSAT-IONOSPHERE (RS7*)
1 61784U 24199BB  26109.50340160  .00040428  00000+0  65033-3 0  9995
2 61784  97.3039 344.2026 0011223 131.6782 228.5433 15.52812572128441
RTU MIREA 1 (RS51S)     
1 61785U 24199BC  26109.50842833  .00047206  00000+0  69442-3 0  9999
2 61785  97.3030 344.7872 0011364 129.2655 230.9609 15.55245236125332
